start=new Date('2022-10-04T00:00:00.000Z').valueOf();
sats=[{"CENTER_NAME":"EARTH","INCLINATION":"53.2164","MEAN_MOTION_DDOT":"0.0000000000000","MEAN_ANOMALY":"296.8972","LAUNCH_DATE":"2022-03-03","ECCENTRICITY":"0.00015620","MEAN_MOTION_DOT":"0.00009303","COUNTRY_CODE":"US","ARG_OF_PERICENTER":"63.2180","BSTAR":"0.00060150000000","CLASSIFICATION_TYPE":"U","OBJECT_TYPE":"PAYLOAD","MEAN_ELEMENT_THEORY":"SGP4","EPHEMERIS_TYPE":"0","SITE":"AFETR","PERIOD":"95.436","TLE_LINE1":"1 51886U 22022AL  22276.77266715  .00009303  00000-0  60150-3 0  9996","TLE_LINE2":"2 51886  53.2164 223.6917 0001562  63.2180 296.8972 15.08858707 34105","NORAD_CAT_ID":"51886","EPOCH":"2022-10-03T18:32:38.441760","DECAY_DATE":null,"OBJECT_ID":"2022-022AL","TIME_SYSTEM":"UTC","SEMIMAJOR_AXIS":"6917.823","PERIAPSIS":"538.608","RCS_SIZE":"LARGE","OBJECT_NAME":"STARLINK-3565","GP_ID":"214120916","MEAN_MOTION":"15.08858707","RA_OF_ASC_NODE":"223.6917","APOAPSIS":"540.769","FILE":"3590585","ELEMENT_SET_NO":"999","REV_AT_EPOCH":"3410","REF_FRAME":"TEME"},{"ELEMENT_SET_NO":"999","REV_AT_EPOCH":"3410","RA_OF_ASC_NODE":"223.4438","APOAPSIS":"540.929","FILE":"3590585","REF_FRAME":"TEME","SEMIMAJOR_AXIS":"6917.835","PERIAPSIS":"538.472","TIME_SYSTEM":"UTC","MEAN_MOTION":"15.08854728","RCS_SIZE":"LARGE","GP_ID":"214119671","OBJECT_NAME":"STARLINK-3551","NORAD_CAT_ID":"51887","EPOCH":"2022-10-03T19:52:07.857408","TLE_LINE2":"2 51887  53.2157 223.4438 0001776  52.7338 307.3816 15.08854728 34103","OBJECT_ID":"2022-022AM","DECAY_DATE":null,"EPHEMERIS_TYPE":"0","MEAN_ELEMENT_THEORY":"SGP4","OBJECT_TYPE":"PAYLOAD","TLE_LINE1":"1 51887U 22022AM  22276.82786872  .00004429  00000-0  29608-3 0  9991","SITE":"AFETR","PERIOD":"95.437","BSTAR":"0.00029608000000","ARG_OF_PERICENTER":"52.7338","CLASSIFICATION_TYPE":"U","COUNTRY_CODE":"US","LAUNCH_DATE":"2022-03-03","ECCENTRICITY":"0.00017760","MEAN_MOTION_DOT":"0.00004429","MEAN_ANOMALY":"307.3816","MEAN_MOTION_DDOT":"0.0000000000000","CENTER_NAME":"EARTH","INCLINATION":"53.2157"},{"MEAN_MOTION_DDOT":"0.0000000000000","MEAN_ANOMALY":"302.5263","INCLINATION":"53.2142","CENTER_NAME":"EARTH","CLASSIFICATION_TYPE":"U","ARG_OF_PERICENTER":"57.5884","BSTAR":"0.00092267000000","LAUNCH_DATE":"2022-03-03","MEAN_MOTION_DOT":"0.00014439","ECCENTRICITY":"0.00016090","COUNTRY_CODE":"US","DECAY_DATE":null,"OBJECT_ID":"2022-022AN","TLE_LINE2":"2 51888  53.2142 223.4102 0001609  57.5884 302.5263 15.08869616 34116","NORAD_CAT_ID":"51888","EPOCH":"2022-10-03T20:02:43.985184","SITE":"AFETR","PERIOD":"95.436","TLE_LINE1":"1 51888U 22022AN  22276.83523131  .00014439  00000-0  92267-3 0  9993","OBJECT_TYPE":"PAYLOAD","MEAN_ELEMENT_THEORY":"SGP4","EPHEMERIS_TYPE":"0","REF_FRAME":"TEME","APOAPSIS":"540.768","RA_OF_ASC_NODE":"223.4102","FILE":"3590585","ELEMENT_SET_NO":"999","REV_AT_EPOCH":"3411","RCS_SIZE":"LARGE","GP_ID":"214119921","OBJECT_NAME":"STARLINK-3536","MEAN_MOTION":"15.08869616","TIME_SYSTEM":"UTC","SEMIMAJOR_AXIS":"6917.790","PERIAPSIS":"538.542"},{"MEAN_ANOMALY":"313.6509","MEAN_MOTION_DDOT":"0.0000000000000","INCLINATION":"53.2167","CENTER_NAME":"EARTH","CLASSIFICATION_TYPE":"U","BSTAR":"0.00049227000000","ARG_OF_PERICENTER":"46.4655","COUNTRY_CODE":"US","MEAN_MOTION_DOT":"0.00007558","LAUNCH_DATE":"2022-03-03","ECCENTRICITY":"0.00020660","OBJECT_ID":"2022-022AP","DECAY_DATE":null,"EPOCH":"2022-10-03T13:14:41.093664","NORAD_CAT_ID":"51889","TLE_LINE2":"2 51889  53.2167 224.6794 0002066  46.4655 313.6509 15.08854124 34063","TLE_LINE1":"1 51889U 22022AP  22276.55186451  .00007558  00000-0  49227-3 0  9995","PERIOD":"95.437","SITE":"AFETR","EPHEMERIS_TYPE":"0","MEAN_ELEMENT_THEORY":"SGP4","OBJECT_TYPE":"PAYLOAD","REF_FRAME":"TEME","REV_AT_EPOCH":"3406","ELEMENT_SET_NO":"999","FILE":"3590320","RA_OF_ASC_NODE":"224.6794","APOAPSIS":"541.131","MEAN_MOTION":"15.08854124","OBJECT_NAME":"STARLINK-3547","GP_ID":"214088665","RCS_SIZE":"LARGE","PERIAPSIS":"538.273","SEMIMAJOR_AXIS":"6917.837","TIME_SYSTEM":"UTC"},{"MEAN_MOTION":"15.08901522","RCS_SIZE":"LARGE","GP_ID":"214088915","OBJECT_NAME":"STARLINK-3519","SEMIMAJOR_AXIS":"6917.692","PERIAPSIS":"538.052","TIME_SYSTEM":"UTC","REF_FRAME":"TEME","ELEMENT_SET_NO":"999","REV_AT_EPOCH":"3403","RA_OF_ASC_NODE":"225.5430","APOAPSIS":"541.063","FILE":"3590320","TLE_LINE1":"1 51890U 22022AQ  22276.36053271  .00029265  00000-0  18461-2 0  9993","SITE":"AFETR","PERIOD":"95.434","EPHEMERIS_TYPE":"0","OBJECT_TYPE":"PAYLOAD","MEAN_ELEMENT_THEORY":"SGP4","OBJECT_ID":"2022-022AQ","DECAY_DATE":null,"EPOCH":"2022-10-03T08:39:10.026144","NORAD_CAT_ID":"51890","TLE_LINE2":"2 51890  53.2163 225.5430 0002176  58.4392 301.6813 15.08901522 34038","COUNTRY_CODE":"US","MEAN_MOTION_DOT":"0.00029265","LAUNCH_DATE":"2022-03-03","ECCENTRICITY":"0.00021760","CLASSIFICATION_TYPE":"U","BSTAR":"0.00184610000000","ARG_OF_PERICENTER":"58.4392","INCLINATION":"53.2163","CENTER_NAME":"EARTH","MEAN_ANOMALY":"301.6813","MEAN_MOTION_DDOT":"0.0000000000000"},{"COUNTRY_CODE":"US","MEAN_MOTION_DOT":"0.00000612","LAUNCH_DATE":"2022-03-03","ECCENTRICITY":"0.00015860","BSTAR":"0.00005653100000","ARG_OF_PERICENTER":"54.4629","CLASSIFICATION_TYPE":"U","CENTER_NAME":"EARTH","INCLINATION":"53.2198","MEAN_ANOMALY":"305.6511","MEAN_MOTION_DDOT":"0.0000000000000","SEMIMAJOR_AXIS":"6917.853","PERIAPSIS":"538.620","TIME_SYSTEM":"UTC","MEAN_MOTION":"15.08849122","RCS_SIZE":"LARGE","GP_ID":"214119172","OBJECT_NAME":"STARLINK-3549","ELEMENT_SET_NO":"999","REV_AT_EPOCH":"3416","RA_OF_ASC_NODE":"223.2093","APOAPSIS":"540.815","FILE":"3590585","REF_FRAME":"TEME","EPHEMERIS_TYPE":"0","OBJECT_TYPE":"PAYLOAD","MEAN_ELEMENT_THEORY":"SGP4","TLE_LINE1":"1 51891U 22022AR  22276.87938263  .00000612  00000-0  56531-4 0  9990","SITE":"AFETR","PERIOD":"95.437","NORAD_CAT_ID":"51891","EPOCH":"2022-10-03T21:06:18.659232","TLE_LINE2":"2 51891  53.2198 223.2093 0001586  54.4629 305.6511 15.08849122 34160","OBJECT_ID":"2022-022AR","DECAY_DATE":null},{"CENTER_NAME":"EARTH","INCLINATION":"53.2177","MEAN_MOTION_DDOT":"0.0000000000000","MEAN_ANOMALY":"303.2827","LAUNCH_DATE":"2022-03-03","ECCENTRICITY":"0.00016170","MEAN_MOTION_DOT":"0.00004266","COUNTRY_CODE":"US","ARG_OF_PERICENTER":"56.8320","BSTAR":"0.00028583000000","CLASSIFICATION_TYPE":"U","MEAN_ELEMENT_THEORY":"SGP4","OBJECT_TYPE":"PAYLOAD","EPHEMERIS_TYPE":"0","SITE":"AFETR","PERIOD":"95.437","TLE_LINE1":"1 51892U 22022AS  22276.29058568  .00004266  00000-0  28583-3 0  9992","TLE_LINE2":"2 51892  53.2177 225.8588 0001617  56.8320 303.2827 15.08853650 34024","EPOCH":"2022-10-03T06:58:26.602752","NORAD_CAT_ID":"51892","DECAY_DATE":null,"OBJECT_ID":"2022-022AS","TIME_SYSTEM":"UTC","SEMIMAJOR_AXIS":"6917.839","PERIAPSIS":"538.585","RCS_SIZE":"LARGE","OBJECT_NAME":"STARLINK-3587","GP_ID":"214095503","MEAN_MOTION":"15.08853650","APOAPSIS":"540.822","RA_OF_ASC_NODE":"225.8588","FILE":"3590507","ELEMENT_SET_NO":"999","REV_AT_EPOCH":"3402","REF_FRAME":"TEME"},{"REV_AT_EPOCH":"3416","ELEMENT_SET_NO":"999","FILE":"3590585","APOAPSIS":"540.881","RA_OF_ASC_NODE":"223.5353","REF_FRAME":"TEME","PERIAPSIS":"538.529","SEMIMAJOR_AXIS":"6917.840","TIME_SYSTEM":"UTC","MEAN_MOTION":"15.08853356","OBJECT_NAME":"STARLINK-3579","GP_ID":"214120673","RCS_SIZE":"LARGE","EPOCH":"2022-10-03T19:20:20.116896","NORAD_CAT_ID":"51893","TLE_LINE2":"2 51893  53.2181 223.5353 0001700  52.3318 307.7828 15.08853356 34164","OBJECT_ID":"2022-022AT","DECAY_DATE":null,"EPHEMERIS_TYPE":"0","OBJECT_TYPE":"PAYLOAD","MEAN_ELEMENT_THEORY":"SGP4","TLE_LINE1":"1 51893U 22022AT  22276.80578839  .00005746  00000-0  37869-3 0  9999","PERIOD":"95.437","SITE":"AFETR","BSTAR":"0.00037869000000","ARG_OF_PERICENTER":"52.3318","CLASSIFICATION_TYPE":"U","COUNTRY_CODE":"US","LAUNCH_DATE":"2022-03-03","MEAN_MOTION_DOT":"0.00005746","ECCENTRICITY":"0.00017000","MEAN_ANOMALY":"307.7828","MEAN_MOTION_DDOT":"0.0000000000000","CENTER_NAME":"EARTH","INCLINATION":"53.2181"},{"COUNTRY_CODE":"US","MEAN_MOTION_DOT":"0.00007755","LAUNCH_DATE":"2022-03-03","ECCENTRICITY":"0.00019010","BSTAR":"0.00050449000000","ARG_OF_PERICENTER":"45.6035","CLASSIFICATION_TYPE":"U","CENTER_NAME":"EARTH","INCLINATION":"53.2193","MEAN_ANOMALY":"314.5113","MEAN_MOTION_DDOT":"0.0000000000000","PERIAPSIS":"538.355","SEMIMAJOR_AXIS":"6917.805","TIME_SYSTEM":"UTC","MEAN_MOTION":"15.08864569","OBJECT_NAME":"STARLINK-3595","GP_ID":"214095504","RCS_SIZE":"LARGE","REV_AT_EPOCH":"3417","ELEMENT_SET_NO":"999","FILE":"3590507","APOAPSIS":"540.985","RA_OF_ASC_NODE":"223.2309","REF_FRAME":"TEME","EPHEMERIS_TYPE":"0","MEAN_ELEMENT_THEORY":"SGP4","OBJECT_TYPE":"PAYLOAD","TLE_LINE1":"1 51894U 22022AU  22276.87570807  .00007755  00000-0  50449-3 0  9995","PERIOD":"95.436","SITE":"AFETR","EPOCH":"2022-10-03T21:01:01.177248","NORAD_CAT_ID":"51894","TLE_LINE2":"2 51894  53.2193 223.2309 0001901  45.6035 314.5113 15.08864569 34172","OBJECT_ID":"2022-022AU","DECAY_DATE":null},{"CENTER_NAME":"EARTH","INCLINATION":"53.2197","MEAN_MOTION_DDOT":"0.0000000000000","MEAN_ANOMALY":"313.6225","ECCENTRICITY":"0.00019570","LAUNCH_DATE":"2022-03-03","MEAN_MOTION_DOT":"0.00001383","COUNTRY_CODE":"US","ARG_OF_PERICENTER":"46.4930","BSTAR":"0.00010499000000","CLASSIFICATION_TYPE":"U","MEAN_ELEMENT_THEORY":"SGP4","OBJECT_TYPE":"PAYLOAD","EPHEMERIS_TYPE":"0","PERIOD":"95.437","SITE":"AFETR","TLE_LINE1":"1 51895U 22022AV  22276.27218057  .00001383  00000-0  10499-3 0  9998","TLE_LINE2":"2 51895  53.2197 225.9251 0001957  46.4930 313.6225 15.08845957 34024","EPOCH":"2022-10-03T06:31:56.401248","NORAD_CAT_ID":"51895","DECAY_DATE":null,"OBJECT_ID":"2022-022AV","TIME_SYSTEM":"UTC","PERIAPSIS":"538.373","SEMIMAJOR_AXIS":"6917.862","OBJECT_NAME":"STARLINK-3594","GP_ID":"214089665","RCS_SIZE":"LARGE","MEAN_MOTION":"15.08845957","FILE":"3590320","APOAPSIS":"541.081","RA_OF_ASC_NODE":"225.9251","REV_AT_EPOCH":"3402","ELEMENT_SET_NO":"999","REF_FRAME":"TEME"}];
